MEAN_MOTION;ECCENTRICITY;INCLINATION;RA_OF_ASC_NODE;ARG_OF_PERICENTER;MEAN_ANOMALY;BSTAR;MEAN_MOTION_DOT;MEAN_MOTION_DDOT;TYPE
12.04724579;0.0001096;51.9984;329.7241;346.9786;118.4227;0.0012247;1.7E-7;0;Globalstar
12.04724635;0.0001097;51.9984;329.0226;348.0095;152.2184;0.0012406;1.9E-7;0;Globalstar
12.04724791;0.00011;51.9983;327.0176;350.0599;96.0483;0.0012259;1.7E-7;0;Globalstar
12.04724971;0.0001104;51.998;324.5311;353.0478;83.9947;0.0011165;8.0E-8;0;Globalstar
12.04725044;0.000111;51.998;323.5778;354.1718;157.766;0.0010824;5.0E-8;0;Globalstar
12.04725137;0.0001113;51.9979;322.036;355.6957;86.0873;0.00095195;-6.0E-8;0;Globalstar
12.0472516;0.0001109;51.9978;321.0849;356.7914;156.1262;0.00085372;-1.4E-7;0;Globalstar
12.04725234;0.0001106;51.9977;319.3412;358.5704;44.9094;0.00066643;-3.0E-7;0;Globalstar
12.04725162;0.0001128;51.9976;316.6223;1.2426;42.5334;0.00020726;-7.0E-7;0;Globalstar
12.04725133;0.0001139;51.9974;313.6545;5.0867;74.5472;-8.1882E-5;-9.4E-7;0;Globalstar
12.04725082;0.0001145;51.9972;310.9354;7.6362;72.4657;-0.00024271;-1.08E-6;0;Globalstar
12.04724926;0.0001154;51.9969;307.9732;9.6656;97.2399;-0.00036195;-1.18E-6;0;Globalstar
12.04724827;0.0001163;51.9967;305.4972;11.9921;69.1368;-0.00034207;-1.17E-6;0;Globalstar
12.04724821;0.0001158;51.9967;305.2574;12.3223;89.874;-0.0003136;-1.14E-6;0;Globalstar
12.04724893;0.0001154;51.9968;302.5396;13.9144;86.2014;-2.016E-5;-8.9E-7;0;Globalstar
12.04724838;0.0001166;51.9966;299.8208;15.9958;84.0651;-5.0524E-5;-9.2E-7;0;Globalstar
12.04724828;0.0001171;51.9966;299.3264;16.3732;149.2448;-5.89E-5;-9.2E-7;0;Globalstar
12.04724763;0.0001185;51.9964;297.1015;17.9829;82.7353;-0.0001069;-9.7E-7;0;Globalstar
12.04724759;0.0001187;51.9964;296.6048;18.408;151.5522;-0.00010088;-9.6E-7;0;Globalstar
12.04724668;0.0001187;51.9963;294.6216;19.688;61.3376;-0.00020476;-1.05E-6;0;Globalstar
12.04724696;0.0001184;51.9963;294.3821;20.1644;81.3441;-0.00015952;-1.01E-6;0;Globalstar
12.04724683;0.0001196;51.9962;292.6203;21.2799;359.6009;-0.00013211;-9.9E-7;0;Globalstar
12.04724676;0.0001198;51.9961;291.6623;22.0353;80.9782;-0.00011937;-9.8E-7;0;Globalstar
12.04724718;0.0001197;51.996;288.9426;24.2999;80.0533;-2.4466E-5;-9.0E-7;0;Globalstar
12.04724722;0.0001199;51.996;288.4427;24.684;153.9474;-1.8944E-5;-8.9E-7;0;Globalstar
12.04724739;0.00012;51.9959;285.9699;26.4921;121.1243;7.7796E-6;-8.7E-7;0;Globalstar
12.04724753;0.0001204;51.9958;284.4608;27.4655;357.8464;2.9109E-5;-8.5E-7;0;Globalstar
12.04725011;0.0001217;51.9955;283.2478;29.3024;123.3095;0.00022324;-6.8E-7;0;Globalstar
12.0472475;0.0001208;51.9958;281.504;29.6355;13.6758;-7.5554E-6;-8.8E-7;0;Globalstar
12.0472477;0.0001214;51.9957;280.7648;30.1203;107.6965;1.8853E-5;-8.6E-7;0;Globalstar
12.04724986;0.0001229;51.9954;279.0291;31.9693;343.6759;-0.00033996;-1.17E-6;0;Globalstar
12.04724788;0.0001229;51.9956;276.545;32.7481;329.7443;-1.6044E-5;-8.9E-7;0;Globalstar
12.04724926;0.0001236;51.9953;275.817;34.0766;45.1673;-0.00066129;-1.44E-6;0;Globalstar
12.04724876;0.0001234;51.9953;273.5796;35.5764;358.6002;-0.00075863;-1.52E-6;0;Globalstar
12.04724919;0.0001236;51.9953;272.363;36.6634;130.6092;-0.00068875;-1.46E-6;0;Globalstar
12.04724902;0.0001232;51.9953;270.6345;37.8257;355.7461;-0.00065238;-1.43E-6;0;Globalstar
12.04724927;0.0001224;51.9952;269.9168;38.4719;55.5777;-0.00054966;-1.35E-6;0;Globalstar
12.04724947;0.0001211;51.9953;266.954;40.2734;81.3855;-0.00022495;-1.07E-6;0;Globalstar
12.04724949;0.0001211;51.9953;266.708;40.4078;112.1633;-0.00020183;-1.05E-6;0;Globalstar
12.0472497;0.0001205;51.9953;264.7024;41.5523;57.606;7.2096E-5;-8.1E-7;0;Globalstar
12.04725017;0.0001201;51.9953;262.7028;42.7114;353.4595;0.00035212;-5.7E-7;0;Globalstar
12.04725036;0.0001199;51.9953;261.9828;43.2001;56.9763;0.00046249;-4.8E-7;0;Globalstar
12.04725104;0.0001204;51.9953;259.9832;44.1596;353.2114;0.00071712;-2.6E-7;0;Globalstar
12.04725175;0.0001204;51.9954;258.339;44.958;84.8025;0.00089642;-1.1E-7;0;Globalstar
12.0472532;0.0001215;51.9954;256.5437;45.9676;56.2025;0.0011051;7.0E-8;0;Globalstar
12.04725487;0.0001195;51.9955;254.2949;47.2759;28.0671;0.0011891;1.4E-7;0;Globalstar
12.04725563;0.0001201;51.9954;253.5667;47.4672;104.6943;0.0012793;2.2E-7;0;Globalstar
12.04725786;0.0001197;51.9955;250.8785;48.5881;54.9927;0.0012439;1.9E-7;0;Globalstar
12.04725792;0.0001196;51.9955;250.6227;48.6327;101.3238;0.00121;1.6E-7;0;Globalstar
12.04725877;0.0001189;51.9956;247.9033;49.7431;101.2692;0.00084882;-1.5E-7;0;Globalstar
12.04725877;0.0001189;51.9956;247.9033;49.7431;101.2692;0.00084882;-1.5E-7;0;Globalstar
12.04725911;0.0001183;51.9957;245.6656;50.8724;55.7107;0.00046836;-4.7E-7;0;Globalstar
12.04725895;0.0001189;51.9957;243.4178;52.4793;25.6106;8.053E-5;-8.1E-7;0;Globalstar
12.04725802;0.0001194;51.9957;242.6821;52.5365;114.5734;-0.00012999;-9.9E-7;0;Globalstar
12.04725646;0.0001164;51.9957;239.7488;53.6538;94.5315;-0.00064258;-1.42E-6;0;Globalstar
12.04725429;0.0001147;51.9959;237.9802;53.8236;24.9487;-0.00019231;-1.04E-6;0;Globalstar
12.04725344;0.0001153;51.996;235.261;55.1683;24.4828;-0.00030497;-1.14E-6;0;Globalstar
12.0472528;0.0001148;51.996;234.3114;55.3014;93.2074;-0.00038824;-1.21E-6;0;Globalstar
12.04725213;0.0001132;51.9961;231.8122;56.6062;103.2118;-0.00044105;-1.25E-6;0;Globalstar
12.04725201;0.0001131;51.9961;231.5906;56.5194;95.5004;-0.00045256;-1.26E-6;0;Globalstar
12.04725107;0.0001117;51.9961;228.872;57.7862;94.0876;-0.00051036;-1.31E-6;0;Globalstar
12.04725107;0.0001117;51.9961;228.872;57.7862;94.0876;-0.00051036;-1.31E-6;0;Globalstar
12.04725021;0.0001111;51.9961;226.8655;58.7458;41.3368;-0.00054854;-1.34E-6;0;Globalstar
12.04724964;0.0001105;51.9961;224.3855;59.7166;21.1562;-0.00048967;-1.29E-6;0;Globalstar
12.0472496;0.0001106;51.9961;224.1473;59.8163;39.5989;-0.00048166;-1.29E-6;0;Globalstar
12.04724933;0.0001107;51.9961;223.228;60.083;60.09;-0.00046652;-1.27E-6;0;Globalstar
12.04724912;0.0001101;51.9961;221.6682;60.7433;17.9489;-0.00041185;-1.23E-6;0;Globalstar
12.04724877;0.0001089;51.9961;219.179;61.6561;12.3093;-0.00032215;-1.15E-6;0;Globalstar
12.04724915;0.0001094;51.9961;218.7086;61.7844;39.6173;-0.00022264;-1.07E-6;0;Globalstar
12.04724874;0.0001093;51.9961;216.2289;62.7487;18.8679;-0.0001659;-1.02E-6;0;Globalstar
12.04724912;0.0001091;51.996;215.5124;63.215;77.0059;-6.9822E-5;-9.3E-7;0;Globalstar
12.04724966;0.0001085;51.996;212.7874;64.5188;85.6708;8.2595E-5;-8.0E-7;0;Globalstar
12.04725198;0.0001091;51.9959;210.0683;65.8111;85.0617;0.00038585;-5.4E-7;0;Globalstar
12.04725226;0.0001085;51.9958;208.0817;66.6211;1.1259;0.00018383;-7.2E-7;0;Globalstar
12.04725246;0.0001088;51.9958;207.6003;66.8909;45.8871;0.00016707;-7.3E-7;0;Globalstar
12.04725293;0.0001086;51.9957;205.1114;67.4834;40.2352;-1.3689E-5;-8.9E-7;0;Globalstar
12.04725344;0.0001083;51.9955;202.648;68.3493;353.7453;-0.00011769;-9.8E-7;0;Globalstar
12.04725371;0.0001082;51.9954;200.145;69.0879;10.0676;-0.00018335;-1.03E-6;0;Globalstar
12.04725388;0.0001083;51.9954;199.9281;69.1499;354.7388;-0.00015466;-1.01E-6;0;Globalstar
12.04725404;0.0001082;51.9954;198.6548;69.6982;217.4868;-0.00015154;-1.0E-6;0;Globalstar
12.0472543;0.0001084;51.9953;197.218;70.4363;339.896;-9.3851E-5;-9.5E-7;0;Globalstar
12.04725463;0.0001082;51.9951;194.454;71.3701;50.8353;4.5013E-5;-8.4E-7;0;Globalstar
12.04725474;0.000108;51.9952;194.2457;71.3142;21.9453;7.5944E-5;-8.1E-7;0;Globalstar
12.0472549;0.0001074;51.9951;193.7563;70.9652;79.809;0.00011637;-7.8E-7;0;Globalstar
12.0472557;0.0001067;51.995;191.036;71.5116;81.7793;0.00036731;-5.6E-7;0;Globalstar
12.04725697;0.000106;51.9949;188.3178;72.0055;80.5751;0.0006632;-3.1E-7;0;Globalstar
12.04725729;0.0001057;51.9949;187.2715;72.1995;302.9452;0.00073871;-2.4E-7;0;Globalstar
12.04725799;0.0001053;51.9948;186.087;72.4945;24.8324;0.00085642;-1.4E-7;0;Globalstar
12.04725961;0.0001045;51.9947;183.5926;73.1576;27.6225;0.0010721;4.0E-8;0;Globalstar
12.04726185;0.0001039;51.9945;180.397;73.7133;64.8473;0.0012268;1.8E-7;0;Globalstar
12.04726392;0.0001035;51.9944;177.6777;73.9671;65.3662;0.0012832;2.2E-7;0;Globalstar
12.0472655;0.000103;51.9942;175.2091;74.2535;27.6123;0.0012223;1.7E-7;0;Globalstar
12.04726574;0.0001029;51.9942;174.9526;74.3597;75.1013;0.0012258;1.7E-7;0;Globalstar
12.04726672;0.0001028;51.9941;172.4886;74.7417;29.6732;0.0010186;0;0;Globalstar
12.04726688;0.000103;51.994;172.2327;74.7678;76.3702;0.0010056;-1.0E-8;0;Globalstar
12.04726786;0.0001024;51.9939;169.5144;75.139;74.9898;0.00077973;-2.1E-7;0;Globalstar
12.04726798;0.0001025;51.9938;168.0067;75.6972;310.1149;0.00057566;-3.8E-7;0;Globalstar
12.04726782;0.0001019;51.9938;166.7955;75.3862;74.8596;0.00042937;-5.1E-7;0;Globalstar
12.04726757;0.0001018;51.9937;164.3251;75.4655;39.9066;0.00015283;-7.4E-7;0;Globalstar
12.04726758;0.0001017;51.9937;164.0772;75.4593;73.7997;0.00012817;-7.6E-7;0;Globalstar
12.04726696;0.0001016;51.9937;161.3593;75.7383;71.9232;-0.00014794;-1.0E-6;0;Globalstar
12.0472664;0.0001013;51.9937;158.6401;75.9416;72.2602;-0.00030667;-1.14E-6;0;Globalstar
12.04726591;0.0001016;51.9937;156.8706;76.1967;3.6502;-0.00038816;-1.21E-6;0;Globalstar
12.04726572;0.0001017;51.9937;155.9194;75.7667;75.4386;-0.00039075;-1.21E-6;0;Globalstar
12.04726528;0.000102;51.9936;153.6893;76.0641;18.5609;-0.00036563;-1.19E-6;0;Globalstar
12.04726534;0.0001021;51.9936;153.2426;76.0771;8.2964;-0.00034008;-1.17E-6;0;Globalstar
12.04726496;0.0001023;51.9936;150.5231;76.415;8.8822;-0.00023358;-1.07E-6;0;Globalstar
12.04726494;0.0001029;51.9936;147.7604;76.7822;78.0641;-3.4975E-5;-9.0E-7;0;Globalstar
12.04726498;0.000103;51.9936;146.7029;76.894;318.235;5.8093E-5;-8.2E-7;0;Globalstar
12.04726531;0.0001032;51.9936;145.0832;77.5326;11.0811;0.00021175;-6.9E-7;0;Globalstar
12.04726551;0.0001036;51.9936;143.2583;78.1636;29.9007;0.00033747;-5.9E-7;0;Globalstar
12.04726568;0.0001035;51.9936;142.5598;78.4715;59.4296;0.00040371;-5.3E-7;0;Globalstar
12.04726602;0.000104;51.9937;139.8401;79.3131;59.7783;0.0005081;-4.4E-7;0;Globalstar
